[{"OBJECT_NAME":"SITRO-AIS 8 (ANOKHIN)","OBJECT_ID":"2023-091AD","EPOCH":"2026-03-09T23:44:40.058592","MEAN_MOTION":15.29359179,"ECCENTRICITY":0.0012509,"INCLINATION":97.5169,"RA_OF_ASC_NODE":133.2823,"ARG_OF_PERICENTER":92.0171,"MEAN_ANOMALY":268.2501,"EPHEMERIS_TYPE":0,"CLASSIFICATION_TYPE":"U","NORAD_CAT_ID":57193,"ELEMENT_SET_NO":999,"REV_AT_EPOCH":14927,"BSTAR":0.00064982524,"MEAN_MOTION_DOT":0.00018494,"MEAN_MOTION_DDOT":0},{"OBJECT_NAME":"STARLINK-34571","OBJECT_ID":"2025-157L","EPOCH":"2026-03-09T23:17:04.632864","MEAN_MOTION":15.30217395,"ECCENTRICITY":0.0001283,"INCLINATION":53.1613,"RA_OF_ASC_NODE":344.5858,"ARG_OF_PERICENTER":124.2138,"MEAN_ANOMALY":235.8985,"EPHEMERIS_TYPE":0,"CLASSIFICATION_TYPE":"U","NORAD_CAT_ID":64914,"ELEMENT_SET_NO":999,"REV_AT_EPOCH":3611,"BSTAR":0.00133278,"MEAN_MOTION_DOT":0.00039344,"MEAN_MOTION_DDOT":0}]
